STARLINK-2335
1 27878C 21021U   21325.06235938  .00002509  00000-0  16810-3 0  3257
2 27878  53.0551 117.9526 0001483  74.6956 317.2564 15.06393128    16
